[{"OBJECT_NAME":"TIANMU-1 08","OBJECT_ID":"2023-101B","EPOCH":"2026-03-07T00:03:25.475616","MEAN_MOTION":15.29204229,"ECCENTRICITY":0.00063808,"INCLINATION":97.2717,"RA_OF_ASC_NODE":118.7901,"ARG_OF_PERICENTER":134.2174,"MEAN_ANOMALY":225.9592,"EPHEMERIS_TYPE":0,"CLASSIFICATION_TYPE":"U","NORAD_CAT_ID":57400,"ELEMENT_SET_NO":999,"REV_AT_EPOCH":14602,"BSTAR":1.4774513e-5,"MEAN_MOTION_DOT":3.46e-6,"MEAN_MOTION_DDOT":0},{"OBJECT_NAME":"STARLINK-36116","OBJECT_ID":"2025-286Z","EPOCH":"2026-03-09T22:30:48.772800","MEAN_MOTION":15.30207627,"ECCENTRICITY":0.00011969,"INCLINATION":53.1614,"RA_OF_ASC_NODE":357.373,"ARG_OF_PERICENTER":110.8378,"MEAN_ANOMALY":249.2751,"EPHEMERIS_TYPE":0,"CLASSIFICATION_TYPE":"U","NORAD_CAT_ID":66948,"ELEMENT_SET_NO":999,"REV_AT_EPOCH":1544,"BSTAR":0.00091118171,"MEAN_MOTION_DOT":0.00026731,"MEAN_MOTION_DDOT":0}]
